UNKNOWN                 
1 81552U          25293.80056914  .00001551  00000+0  34159-2 0  9990
2 81552  99.0613 227.7573 0258168 144.5277 217.3317 13.18036345572275
UNKNOWN                 
1 81599U          25300.49271421  .00000767  00000+0  14646-2 0  9994
2 81599  67.2976  20.9977 0247593 118.6689 263.0478 13.31385425578920
UNKNOWN                 
1 81605U          25299.85297868  .00001173  00000+0  52013-2 0  9994
2 81605  56.4358 346.3790 0167106  72.0102 289.8958 12.81176436180195
UNKNOWN                 
1 81614U          25284.47572083  .00005042  00000+0  31878-1 0  9995
2 81614 101.8589 282.2785 0362952 268.6990  87.2477 12.36334749530280
UNKNOWN                 
1 81615U          25300.62318786  .00002689  00000+0  95405-3 0  9992
2 81615  65.8251 169.5712 0777399 158.1415 205.4809 13.33644460576716
UNKNOWN                 
1 81617U          25299.77061327  .00000383  00000+0  25294-2 0  9990
2 81617 101.2602 116.2689 0038359 327.4542  32.4170 12.57484707547205
UNKNOWN                 
1 81624U          25294.33534327  .00008764  00000+0  14128-2 0  9995
2 81624  66.9769 311.5994 0075563 276.8564  82.3964 14.69960147632002
UNKNOWN                 
1 81640U          25299.20855443  .00000543  00000+0  55831-3 0  9993
2 81640  65.8264 229.0446 0975672  97.2286 274.0509 12.57162552504102
UNKNOWN                 
1 81652U          25300.18208513  .00000892  00000+0  10944-2 0  9998
2 81652 102.1477 179.0165 0365528 103.6379  48.1368 13.44267398572396
UNKNOWN                 
1 81667U          25298.91086710  .00003408  00000+0  93212-3 0  9990
2 81667  74.0381 126.0319 0014774  72.7461 287.5313 14.47546881449728
UNKNOWN                 
1 81674U          25298.81160428  .00001089  00000+0  66180-3 0  9993
2 81674  66.8212 124.9408 0032933 256.9662 122.0039 14.09733381606960
UNKNOWN                 
1 81683U          25299.84647729  .00003451  00000+0  76329-3 0  9992
2 81683  81.2170 344.8119 0025728  83.3277 277.0846 14.56871092629038
