CCSDS_OMM_VERS = 2.0
CREATION_DATE  = 
ORIGINATOR     = 

OBJECT_NAME    = UNKNOWN
OBJECT_ID      = 
CENTER_NAME    = EARTH
REF_FRAME      = TEME
TIME_SYSTEM    = UTC
MEAN_ELEMENT_THEORY = SGP/SGP4

EPOCH          = 2025-10-20T19:12:49.173696
MEAN_MOTION    = 13.18036345
ECCENTRICITY   = .0258168
INCLINATION    = 99.0613
RA_OF_ASC_NODE = 227.7573
ARG_OF_PERICENTER = 144.5277
MEAN_ANOMALY   = 217.3317

EPHEMERIS_TYPE = 0
CLASSIFICATION_TYPE = U
NORAD_CAT_ID   = 81552
ELEMENT_SET_NO = 999
REV_AT_EPOCH   = 57227
BSTAR          = .34159E-2
MEAN_MOTION_DOT = .1551E-4
MEAN_MOTION_DDOT = 0

CCSDS_OMM_VERS = 2.0
CREATION_DATE  = 
ORIGINATOR     = 

OBJECT_NAME    = UNKNOWN
OBJECT_ID      = 
CENTER_NAME    = EARTH
REF_FRAME      = TEME
TIME_SYSTEM    = UTC
MEAN_ELEMENT_THEORY = SGP/SGP4

EPOCH          = 2025-10-27T11:49:30.507744
MEAN_MOTION    = 13.31385425
ECCENTRICITY   = .0247593
INCLINATION    = 67.2976
RA_OF_ASC_NODE = 20.9977
ARG_OF_PERICENTER = 118.6689
MEAN_ANOMALY   = 263.0478

EPHEMERIS_TYPE = 0
CLASSIFICATION_TYPE = U
NORAD_CAT_ID   = 81599
ELEMENT_SET_NO = 999
REV_AT_EPOCH   = 57892
BSTAR          = .14646E-2
MEAN_MOTION_DOT = .767E-5
MEAN_MOTION_DDOT = 0

CCSDS_OMM_VERS = 2.0
CREATION_DATE  = 
ORIGINATOR     = 

OBJECT_NAME    = UNKNOWN
OBJECT_ID      = 
CENTER_NAME    = EARTH
REF_FRAME      = TEME
TIME_SYSTEM    = UTC
MEAN_ELEMENT_THEORY = SGP/SGP4

EPOCH          = 2025-10-26T20:28:17.357952
MEAN_MOTION    = 12.81176436
ECCENTRICITY   = .0167106
INCLINATION    = 56.4358
RA_OF_ASC_NODE = 346.3790
ARG_OF_PERICENTER = 72.0102
MEAN_ANOMALY   = 289.8958

EPHEMERIS_TYPE = 0
CLASSIFICATION_TYPE = U
NORAD_CAT_ID   = 81605
ELEMENT_SET_NO = 999
REV_AT_EPOCH   = 18019
BSTAR          = .52013E-2
MEAN_MOTION_DOT = .1173E-4
MEAN_MOTION_DDOT = 0

CCSDS_OMM_VERS = 2.0
CREATION_DATE  = 
ORIGINATOR     = 

OBJECT_NAME    = UNKNOWN
OBJECT_ID      = 
CENTER_NAME    = EARTH
REF_FRAME      = TEME
TIME_SYSTEM    = UTC
MEAN_ELEMENT_THEORY = SGP/SGP4

EPOCH          = 2025-10-11T11:25:02.279712
MEAN_MOTION    = 12.36334749
ECCENTRICITY   = .0362952
INCLINATION    = 101.8589
RA_OF_ASC_NODE = 282.2785
ARG_OF_PERICENTER = 268.6990
MEAN_ANOMALY   = 87.2477

EPHEMERIS_TYPE = 0
CLASSIFICATION_TYPE = U
NORAD_CAT_ID   = 81614
ELEMENT_SET_NO = 999
REV_AT_EPOCH   = 53028
BSTAR          = .31878E-1
MEAN_MOTION_DOT = .5042E-4
MEAN_MOTION_DDOT = 0

CCSDS_OMM_VERS = 2.0
CREATION_DATE  = 
ORIGINATOR     = 

OBJECT_NAME    = UNKNOWN
OBJECT_ID      = 
CENTER_NAME    = EARTH
REF_FRAME      = TEME
TIME_SYSTEM    = UTC
MEAN_ELEMENT_THEORY = SGP/SGP4

EPOCH          = 2025-10-27T14:57:23.431104
MEAN_MOTION    = 13.33644460
ECCENTRICITY   = .0777399
INCLINATION    = 65.8251
RA_OF_ASC_NODE = 169.5712
ARG_OF_PERICENTER = 158.1415
MEAN_ANOMALY   = 205.4809

EPHEMERIS_TYPE = 0
CLASSIFICATION_TYPE = U
NORAD_CAT_ID   = 81615
ELEMENT_SET_NO = 999
REV_AT_EPOCH   = 57671
BSTAR          = .95405E-3
MEAN_MOTION_DOT = .2689E-4
MEAN_MOTION_DDOT = 0

CCSDS_OMM_VERS = 2.0
CREATION_DATE  = 
ORIGINATOR     = 

OBJECT_NAME    = UNKNOWN
OBJECT_ID      = 
CENTER_NAME    = EARTH
REF_FRAME      = TEME
TIME_SYSTEM    = UTC
MEAN_ELEMENT_THEORY = SGP/SGP4

EPOCH          = 2025-10-26T18:29:40.986528
MEAN_MOTION    = 12.57484707
ECCENTRICITY   = .0038359
INCLINATION    = 101.2602
RA_OF_ASC_NODE = 116.2689
ARG_OF_PERICENTER = 327.4542
MEAN_ANOMALY   = 32.4170

EPHEMERIS_TYPE = 0
CLASSIFICATION_TYPE = U
NORAD_CAT_ID   = 81617
ELEMENT_SET_NO = 999
REV_AT_EPOCH   = 54720
BSTAR          = .25294E-2
MEAN_MOTION_DOT = .383E-5
MEAN_MOTION_DDOT = 0

CCSDS_OMM_VERS = 2.0
CREATION_DATE  = 
ORIGINATOR     = 

OBJECT_NAME    = UNKNOWN
OBJECT_ID      = 
CENTER_NAME    = EARTH
REF_FRAME      = TEME
TIME_SYSTEM    = UTC
MEAN_ELEMENT_THEORY = SGP/SGP4

EPOCH          = 2025-10-21T08:02:53.658528
MEAN_MOTION    = 14.69960147
ECCENTRICITY   = .0075563
INCLINATION    = 66.9769
RA_OF_ASC_NODE = 311.5994
ARG_OF_PERICENTER = 276.8564
MEAN_ANOMALY   = 82.3964

EPHEMERIS_TYPE = 0
CLASSIFICATION_TYPE = U
NORAD_CAT_ID   = 81624
ELEMENT_SET_NO = 999
REV_AT_EPOCH   = 63200
BSTAR          = .14128E-2
MEAN_MOTION_DOT = .8764E-4
MEAN_MOTION_DDOT = 0

CCSDS_OMM_VERS = 2.0
CREATION_DATE  = 
ORIGINATOR     = 

OBJECT_NAME    = UNKNOWN
OBJECT_ID      = 
CENTER_NAME    = EARTH
REF_FRAME      = TEME
TIME_SYSTEM    = UTC
MEAN_ELEMENT_THEORY = SGP/SGP4

EPOCH          = 2025-10-26T05:00:19.102752
MEAN_MOTION    = 12.57162552
ECCENTRICITY   = .0975672
INCLINATION    = 65.8264
RA_OF_ASC_NODE = 229.0446
ARG_OF_PERICENTER = 97.2286
MEAN_ANOMALY   = 274.0509

EPHEMERIS_TYPE = 0
CLASSIFICATION_TYPE = U
NORAD_CAT_ID   = 81640
ELEMENT_SET_NO = 999
REV_AT_EPOCH   = 50410
BSTAR          = .55831E-3
MEAN_MOTION_DOT = .543E-5
MEAN_MOTION_DDOT = 0

CCSDS_OMM_VERS = 2.0
CREATION_DATE  = 
ORIGINATOR     = 

OBJECT_NAME    = UNKNOWN
OBJECT_ID      = 
CENTER_NAME    = EARTH
REF_FRAME      = TEME
TIME_SYSTEM    = UTC
MEAN_ELEMENT_THEORY = SGP/SGP4

EPOCH          = 2025-10-27T04:22:12.155232
MEAN_MOTION    = 13.44267398
ECCENTRICITY   = .0365528
INCLINATION    = 102.1477
RA_OF_ASC_NODE = 179.0165
ARG_OF_PERICENTER = 103.6379
MEAN_ANOMALY   = 48.1368

EPHEMERIS_TYPE = 0
CLASSIFICATION_TYPE = U
NORAD_CAT_ID   = 81652
ELEMENT_SET_NO = 999
REV_AT_EPOCH   = 57239
BSTAR          = .10944E-2
MEAN_MOTION_DOT = .892E-5
MEAN_MOTION_DDOT = 0

CCSDS_OMM_VERS = 2.0
CREATION_DATE  = 
ORIGINATOR     = 

OBJECT_NAME    = UNKNOWN
OBJECT_ID      = 
CENTER_NAME    = EARTH
REF_FRAME      = TEME
TIME_SYSTEM    = UTC
MEAN_ELEMENT_THEORY = SGP/SGP4

EPOCH          = 2025-10-25T21:51:38.917440
MEAN_MOTION    = 14.47546881
ECCENTRICITY   = .0014774
INCLINATION    = 74.0381
RA_OF_ASC_NODE = 126.0319
ARG_OF_PERICENTER = 72.7461
MEAN_ANOMALY   = 287.5313

EPHEMERIS_TYPE = 0
CLASSIFICATION_TYPE = U
NORAD_CAT_ID   = 81667
ELEMENT_SET_NO = 999
REV_AT_EPOCH   = 44972
BSTAR          = .93212E-3
MEAN_MOTION_DOT = .3408E-4
MEAN_MOTION_DDOT = 0

CCSDS_OMM_VERS = 2.0
CREATION_DATE  = 
ORIGINATOR     = 

OBJECT_NAME    = UNKNOWN
OBJECT_ID      = 
CENTER_NAME    = EARTH
REF_FRAME      = TEME
TIME_SYSTEM    = UTC
MEAN_ELEMENT_THEORY = SGP/SGP4

EPOCH          = 2025-10-25T19:28:42.609792
MEAN_MOTION    = 14.09733381
ECCENTRICITY   = .0032933
INCLINATION    = 66.8212
RA_OF_ASC_NODE = 124.9408
ARG_OF_PERICENTER = 256.9662
MEAN_ANOMALY   = 122.0039

EPHEMERIS_TYPE = 0
CLASSIFICATION_TYPE = U
NORAD_CAT_ID   = 81674
ELEMENT_SET_NO = 999
REV_AT_EPOCH   = 60696
BSTAR          = .6618E-3
MEAN_MOTION_DOT = .1089E-4
MEAN_MOTION_DDOT = 0

CCSDS_OMM_VERS = 2.0
CREATION_DATE  = 
ORIGINATOR     = 

OBJECT_NAME    = UNKNOWN
OBJECT_ID      = 
CENTER_NAME    = EARTH
REF_FRAME      = TEME
TIME_SYSTEM    = UTC
MEAN_ELEMENT_THEORY = SGP/SGP4

EPOCH          = 2025-10-26T20:18:55.637856
MEAN_MOTION    = 14.56871092
ECCENTRICITY   = .0025728
INCLINATION    = 81.2170
RA_OF_ASC_NODE = 344.8119
ARG_OF_PERICENTER = 83.3277
MEAN_ANOMALY   = 277.0846

EPHEMERIS_TYPE = 0
CLASSIFICATION_TYPE = U
NORAD_CAT_ID   = 81683
ELEMENT_SET_NO = 999
REV_AT_EPOCH   = 62903
BSTAR          = .76329E-3
MEAN_MOTION_DOT = .3451E-4
MEAN_MOTION_DDOT = 0

